{
  "type": "FeatureCollection",
  "features": [
    {
      "type": "Feature",
      "properties": {
        "norad_id": 66754,
        "name": "ICEYE-X61",
        "group": "last-30-days",
        "lat": -47.472457290445746,
        "lon": 80.94789071254814,
        "alt_km": 520.4442754097208,
        "timestamp": "2025-12-27T05:29:37.916721+00:00",
        "meta_object_name": "ICEYE-X61",
        "meta_object_id": "2025-276CS",
        "meta_epoch": "2025-12-26T22:00:01.999584",
        "meta_mean_motion": 15.17898024,
        "meta_eccentricity": 0.00027064,
        "meta_inclination": 97.4397,
        "meta_ra_of_asc_node": 72.4504,
        "meta_arg_of_pericenter": 177.3315,
        "meta_mean_anomaly": 229.7125,
        "meta_ephemeris_type": 0,
        "meta_classification_type": "U",
        "meta_norad_cat_id": 66754,
        "meta_element_set_no": 999,
        "meta_rev_at_epoch": 545,
        "meta_bstar": -0.0010888282,
        "meta_mean_motion_dot": -0.00022057,
        "meta_mean_motion_ddot": 0,
        "tle_line1": "1 66754U 25276CS  25360.91668981 -.00022057  00000+0 -10888-2 0  9998",
        "tle_line2": "2 66754  97.4397  72.4504 0002706 177.3315 229.7125 15.17898024  5450"
      },
      "geometry": {
        "type": "Point",
        "coordinates": [
          80.94789071254814,
          -47.472457290445746
        ]
      }
    },
    {
      "type": "Feature",
      "properties": {
        "norad_id": 66755,
        "name": "ICEYE-X62",
        "group": "last-30-days",
        "lat": -72.677992499159,
        "lon": 97.51622446374348,
        "alt_km": 520.0826977176066,
        "timestamp": "2025-12-27T05:29:37.916732+00:00",
        "meta_object_name": "ICEYE-X62",
        "meta_object_id": "2025-276CT",
        "meta_epoch": "2025-12-26T15:34:46.209216",
        "meta_mean_motion": 15.17663132,
        "meta_eccentricity": 0.0001281,
        "meta_inclination": 97.4401,
        "meta_ra_of_asc_node": 72.1752,
        "meta_arg_of_pericenter": 205.1986,
        "meta_mean_anomaly": 154.9185,
        "meta_ephemeris_type": 0,
        "meta_classification_type": "U",
        "meta_norad_cat_id": 66755,
        "meta_element_set_no": 999,
        "meta_rev_at_epoch": 423,
        "meta_bstar": 0.00043221008,
        "meta_mean_motion_dot": 8.641e-05,
        "meta_mean_motion_ddot": 0,
        "tle_line1": "1 66755U 25276CT  25360.64914594  .00008641  00000+0  43221-3 0  9992",
        "tle_line2": "2 66755  97.4401  72.1752 0001281 205.1986 154.9185 15.17663132  4230"
      },
      "geometry": {
        "type": "Point",
        "coordinates": [
          97.51622446374348,
          -72.677992499159
        ]
      }
    },
    {
      "type": "Feature",
      "properties": {
        "norad_id": 66756,
        "name": "TRANSPORTER-15CU",
        "group": "last-30-days",
        "lat": -40.185051850957755,
        "lon": 79.10096961828934,
        "alt_km": 519.7480403968893,
        "timestamp": "2025-12-27T05:29:37.916744+00:00",
        "meta_object_name": "TRANSPORTER-15CU",
        "meta_object_id": "2025-276CU",
        "meta_epoch": "2025-12-26T21:45:44.004384",
        "meta_mean_motion": 15.17990507,
        "meta_eccentricity": 0.00018558,
        "meta_inclination": 97.4406,
        "meta_ra_of_asc_node": 72.4469,
        "meta_arg_of_pericenter": 150.3279,
        "meta_mean_anomaly": 209.8061,
        "meta_ephemeris_type": 0,
        "meta_classification_type": "U",
        "meta_norad_cat_id": 66756,
        "meta_element_set_no": 999,
        "meta_rev_at_epoch": 427,
        "meta_bstar": 0.00035441511,
        "meta_mean_motion_dot": 7.139e-05,
        "meta_mean_motion_ddot": 0,
        "tle_line1": "1 66756U 25276CU  25360.90675931  .00007139  00000+0  35442-3 0  9998",
        "tle_line2": "2 66756  97.4406  72.4469 0001855 150.3279 209.8061 15.17990507  4273"
      },
      "geometry": {
        "type": "Point",
        "coordinates": [
          79.10096961828934,
          -40.185051850957755
        ]
      }
    },
    {
      "type": "Feature",
      "properties": {
        "norad_id": 66757,
        "name": "TRANSPORTER-15CV",
        "group": "last-30-days",
        "lat": -31.201716145763896,
        "lon": 77.30754786769249,
        "alt_km": 516.2645216727678,
        "timestamp": "2025-12-27T05:29:37.916755+00:00",
        "meta_object_name": "TRANSPORTER-15CV",
        "meta_object_id": "2025-276CV",
        "meta_epoch": "2025-12-26T23:18:11.598048",
        "meta_mean_motion": 15.17836762,
        "meta_eccentricity": 0.00039586,
        "meta_inclination": 97.4382,
        "meta_ra_of_asc_node": 72.5157,
        "meta_arg_of_pericenter": 309.2672,
        "meta_mean_anomaly": 50.821,
        "meta_ephemeris_type": 0,
        "meta_classification_type": "U",
        "meta_norad_cat_id": 66757,
        "meta_element_set_no": 999,
        "meta_rev_at_epoch": 428,
        "meta_bstar": -0.010277728,
        "meta_mean_motion_dot": -0.00202306,
        "meta_mean_motion_ddot": 0,
        "tle_line1": "1 66757U 25276CV  25360.97096757 -.00202306  00000+0 -10278-1 0  9992",
        "tle_line2": "2 66757  97.4382  72.5157 0003958 309.2672  50.8210 15.17836762  4283"
      },
      "geometry": {
        "type": "Point",
        "coordinates": [
          77.30754786769249,
          -31.201716145763896
        ]
      }
    },
    {
      "type": "Feature",
      "properties": {
        "norad_id": 66758,
        "name": "TRANSPORTER-15CW",
        "group": "last-30-days",
        "lat": -29.177596631464542,
        "lon": 76.94401739502139,
        "alt_km": 518.5039164982372,
        "timestamp": "2025-12-27T05:29:37.916765+00:00",
        "meta_object_name": "TRANSPORTER-15CW",
        "meta_object_id": "2025-276CW",
        "meta_epoch": "2025-12-26T21:42:49.810752",
        "meta_mean_motion": 15.18124795,
        "meta_eccentricity": 0.00015615,
        "meta_inclination": 97.4385,
        "meta_ra_of_asc_node": 72.4418,
        "meta_arg_of_pericenter": 135.853,
        "meta_mean_anomaly": 224.2829,
        "meta_ephemeris_type": 0,
        "meta_classification_type": "U",
        "meta_norad_cat_id": 66758,
        "meta_element_set_no": 999,
        "meta_rev_at_epoch": 427,
        "meta_bstar": 0.00039852673,
        "meta_mean_motion_dot": 8.068e-05,
        "meta_mean_motion_ddot": 0,
        "tle_line1": "1 66758U 25276CW  25360.90474318  .00008068  00000+0  39853-3 0  9998",
        "tle_line2": "2 66758  97.4385  72.4418 0001561 135.8530 224.2829 15.18124795  4279"
      },
      "geometry": {
        "type": "Point",
        "coordinates": [
          76.94401739502139,
          -29.177596631464542
        ]
      }
    },
    {
      "type": "Feature",
      "properties": {
        "norad_id": 66759,
        "name": "TRANSPORTER-15CX",
        "group": "last-30-days",
        "lat": -18.044578556418134,
        "lon": 75.20680635443313,
        "alt_km": 516.9447899274073,
        "timestamp": "2025-12-27T05:29:37.916775+00:00",
        "meta_object_name": "TRANSPORTER-15CX",
        "meta_object_id": "2025-276CX",
        "meta_epoch": "2025-12-26T21:39:54.703872",
        "meta_mean_motion": 15.18281415,
        "meta_eccentricity": 0.00014992,
        "meta_inclination": 97.4393,
        "meta_ra_of_asc_node": 72.4463,
        "meta_arg_of_pericenter": 128.8041,
        "meta_mean_anomaly": 231.3327,
        "meta_ephemeris_type": 0,
        "meta_classification_type": "U",
        "meta_norad_cat_id": 66759,
        "meta_element_set_no": 999,
        "meta_rev_at_epoch": 427,
        "meta_bstar": 0.0010814426,
        "meta_mean_motion_dot": 0.00022149,
        "meta_mean_motion_ddot": 0,
        "tle_line1": "1 66759U 25276CX  25360.90271648  .00022149  00000+0  10814-2 0  9991",
        "tle_line2": "2 66759  97.4393  72.4463 0001499 128.8041 231.3327 15.18281415  4273"
      },
      "geometry": {
        "type": "Point",
        "coordinates": [
          75.20680635443313,
          -18.044578556418134
        ]
      }
    },
    {
      "type": "Feature",
      "properties": {
        "norad_id": 66760,
        "name": "TRANSPORTER-15CY",
        "group": "last-30-days",
        "lat": -16.489165367226096,
        "lon": 74.9842951577862,
        "alt_km": 516.8328686998202,
        "timestamp": "2025-12-27T05:29:37.916785+00:00",
        "meta_object_name": "TRANSPORTER-15CY",
        "meta_object_id": "2025-276CY",
        "meta_epoch": "2025-12-26T21:39:28.962720",
        "meta_mean_motion": 15.18238504,
        "meta_eccentricity": 0.00017293,
        "meta_inclination": 97.439,
        "meta_ra_of_asc_node": 72.4467,
        "meta_arg_of_pericenter": 112.4719,
        "meta_mean_anomaly": 247.6698,
        "meta_ephemeris_type": 0,
        "meta_classification_type": "U",
        "meta_norad_cat_id": 66760,
        "meta_element_set_no": 999,
        "meta_rev_at_epoch": 427,
        "meta_bstar": 0.00040736012,
        "meta_mean_motion_dot": 8.276e-05,
        "meta_mean_motion_ddot": 0,
        "tle_line1": "1 66760U 25276CY  25360.90241855  .00008276  00000+0  40736-3 0  9992",
        "tle_line2": "2 66760  97.4390  72.4467 0001729 112.4719 247.6698 15.18238504  4275"
      },
      "geometry": {
        "type": "Point",
        "coordinates": [
          74.9842951577862,
          -16.489165367226096
        ]
      }
    }
  ]
}